[Satellite]
VERSION=1.1
NAME=MOLNIYA 1-63
NICKNAME=MOLNIYA 1-63
TLE1=1 15429U 84124A   19317.76158976 -.00001035  00000-0  00000+0 0  9999
TLE2=2 15429  63.8118 256.7578 6672467 267.9263  17.3587  2.00619579255814
STATUS=0
